{"type": "FeatureCollection", "features": [{"type": "Feature", "properties": {"name": "울릉읍", "code": "3743011"}, "geometry": {"type": "MultiPolygon", "coordinates": [[[[130.90837, 37.52915], [130.90807, 37.52834], [130.90788, 37.52734], [130.90787, 37.52719], [130.90793, 37.52702], [130.91029, 37.5215], [130.91034, 37.52139], [130.91035, 37.52137], [130.91036, 37.52136], [130.91038, 37.52133], [130.91041, 37.5213], [130.91336, 37.51849], [130.91354, 37.51833], [130.91368, 37.51821], [130.91385, 37.51809], [130.91394, 37.51804], [130.91398, 37.51802], [130.914, 37.51801], [130.91487, 37.51782], [130.91489, 37.51783], [130.91491, 37.51784], [130.91499, 37.51806], [130.91508, 37.51827], [130.91517, 37.51838], [130.91522, 37.51842], [130.91575, 37.51868], [130.91619, 37.51879], [130.91634, 37.5188], [130.91645, 37.51875], [130.91654, 37.51863], [130.91758, 37.51344], [130.917, 37.51034], [130.91454, 37.50524], [130.91466, 37.50496], [130.91538, 37.50276], [130.9154, 37.50256], [130.9154, 37.50248], [130.91533, 37.501], [130.91521, 37.50032], [130.91461, 37.49848], [130.91418, 37.49804], [130.91456, 37.49978], [130.91456, 37.49978], [130.91451, 37.49983], [130.91299, 37.4997], [130.9108, 37.49777], [130.91076, 37.49773], [130.91009, 37.49708], [130.91007, 37.49705], [130.91006, 37.49703], [130.91003, 37.49695], [130.91002, 37.49689], [130.91001, 37.49683], [130.90992, 37.49537], [130.9102, 37.49384], [130.91066, 37.49219], [130.9116, 37.49154], [130.91186, 37.49149], [130.91215, 37.49143], [130.91311, 37.49143], [130.91356, 37.49168], [130.91357, 37.49169], [130.91357, 37.4917], [130.91343, 37.49305], [130.91332, 37.49358], [130.91318, 37.49423], [130.91303, 37.49492], [130.913, 37.49507], [130.91299, 37.4951], [130.91299, 37.49516], [130.91315, 37.49665], [130.91316, 37.49669], [130.91318, 37.49673], [130.91321, 37.49677], [130.91327, 37.49681], [130.91331, 37.49683], [130.91338, 37.49684], [130.91342, 37.49685], [130.9135, 37.49685], [130.91354, 37.49684], [130.91359, 37.49684], [130.91366, 37.49681], [130.9137, 37.49679], [130.91372, 37.49675], [130.91375, 37.4967], [130.91375, 37.49667], [130.91376, 37.49664], [130.91376, 37.49658], [130.91381, 37.49042], [130.91334, 37.48868], [130.91336, 37.48716], [130.91352, 37.4867], [130.91357, 37.48662], [130.91366, 37.48655], [130.91384, 37.48646], [130.91393, 37.48642], [130.91403, 37.48639], [130.91415, 37.48639], [130.91657, 37.48653], [130.91783, 37.48719], [130.91784, 37.48725], [130.91786, 37.48736], [130.91788, 37.48742], [130.91792, 37.48746], [130.91795, 37.48748], [130.91804, 37.48751], [130.9181, 37.48753], [130.91816, 37.48754], [130.91912, 37.48761], [130.91917, 37.48761], [130.9192, 37.4876], [130.91925, 37.48759], [130.92044, 37.48717], [130.9205, 37.48713], [130.92057, 37.48707], [130.92065, 37.48698], [130.92073, 37.48689], [130.92076, 37.48685], [130.92083, 37.48671], [130.92085, 37.48668], [130.92087, 37.48663], [130.92087, 37.48661], [130.92087, 37.4866], [130.92083, 37.48636], [130.92083, 37.48634], [130.92082, 37.48633], [130.91996, 37.48511], [130.91993, 37.48508], [130.91978, 37.48496], [130.91679, 37.48302], [130.91668, 37.48295], [130.91655, 37.48288], [130.91572, 37.48253], [130.91328, 37.48217], [130.91326, 37.48217], [130.91324, 37.48217], [130.91323, 37.48217], [130.91321, 37.48217], [130.9132, 37.48217], [130.91318, 37.48217], [130.91317, 37.48217], [130.91315, 37.48217], [130.91314, 37.48218], [130.91313, 37.48218], [130.91312, 37.48218], [130.91311, 37.48219], [130.91287, 37.48232], [130.91175, 37.48303], [130.91119, 37.48309], [130.90886, 37.4823], [130.90846, 37.48187], [130.90811, 37.48149], [130.90861, 37.48077], [130.90894, 37.48038], [130.90921, 37.47987], [130.90873, 37.47895], [130.90871, 37.47891], [130.90851, 37.47863], [130.90849, 37.4786], [130.90776, 37.47768], [130.90709, 37.47693], [130.90706, 37.4769], [130.90704, 37.4769], [130.90681, 37.47682], [130.90491, 37.47623], [130.90088, 37.47512], [130.90009, 37.47544], [130.89709, 37.47587], [130.89702, 37.47587], [130.89695, 37.47587], [130.89688, 37.47587], [130.89624, 37.47577], [130.89615, 37.47575], [130.89021, 37.47399], [130.89004, 37.47394], [130.88994, 37.47389], [130.88977, 37.4738], [130.88459, 37.47091], [130.88452, 37.47086], [130.88405, 37.47055], [130.88203, 37.46889], [130.87886, 37.46547], [130.87614, 37.45953], [130.87648, 37.45887], [130.87659, 37.45867], [130.87659, 37.45867], [130.8766, 37.45867], [130.88172, 37.4604], [130.8823, 37.46085], [130.88231, 37.46086], [130.88231, 37.46087], [130.88231, 37.46087], [130.88231, 37.46088], [130.88227, 37.46095], [130.88227, 37.46095], [130.88227, 37.46098], [130.88228, 37.46099], [130.88228, 37.461], [130.88248, 37.46112], [130.88252, 37.46114], [130.88257, 37.46114], [130.88258, 37.46114], [130.88265, 37.46113], [130.88274, 37.46109], [130.88275, 37.46109], [130.88281, 37.46102], [130.88285, 37.46096], [130.88286, 37.46092], [130.88287, 37.4609], [130.88287, 37.46088], [130.88286, 37.46087], [130.88286, 37.46084], [130.88285, 37.46083], [130.8827, 37.4607], [130.88261, 37.46063], [130.8821, 37.46026], [130.88189, 37.46012], [130.87721, 37.45855], [130.87605, 37.45821], [130.87549, 37.45803], [130.87545, 37.45798], [130.87543, 37.45794], [130.87542, 37.45786], [130.87539, 37.45769], [130.87539, 37.45768], [130.87539, 37.45767], [130.87539, 37.45764], [130.8754, 37.45762], [130.8754, 37.45761], [130.87541, 37.4576], [130.87542, 37.45759], [130.87545, 37.45756], [130.87546, 37.45755], [130.87547, 37.45753], [130.87547, 37.45753], [130.87548, 37.45751], [130.87554, 37.45709], [130.8758, 37.45502], [130.87561, 37.45423], [130.8756, 37.4542], [130.87554, 37.45408], [130.87553, 37.45405], [130.87551, 37.45402], [130.87549, 37.45399], [130.87547, 37.45396], [130.87545, 37.45394], [130.87526, 37.45374], [130.87524, 37.45371], [130.87521, 37.45369], [130.87517, 37.45366], [130.87514, 37.45364], [130.87511, 37.45368], [130.87507, 37.45373], [130.87429, 37.45452], [130.87358, 37.45532], [130.87358, 37.45533], [130.87357, 37.45562], [130.87365, 37.45622], [130.87291, 37.45744], [130.87097, 37.45956], [130.87091, 37.45961], [130.87028, 37.46005], [130.87014, 37.46011], [130.86924, 37.46091], [130.86872, 37.46143], [130.86838, 37.46177], [130.86763, 37.46255], [130.86753, 37.46272], [130.86737, 37.46316], [130.86735, 37.46325], [130.86724, 37.46379], [130.86719, 37.46523], [130.86726, 37.46549], [130.86736, 37.46581], [130.86757, 37.46621], [130.86784, 37.46652], [130.86872, 37.46848], [130.86872, 37.46849], [130.86778, 37.46899], [130.86555, 37.47043], [130.86364, 37.47167], [130.86515, 37.47499], [130.86664, 37.47833], [130.8673, 37.48037], [130.86767, 37.48178], [130.86776, 37.48239], [130.86752, 37.48277], [130.86701, 37.48304], [130.867, 37.48303], [130.86636, 37.48344], [130.86563, 37.48448], [130.86571, 37.48653], [130.86498, 37.48981], [130.86445, 37.49135], [130.86438, 37.49153], [130.86434, 37.4933], [130.86472, 37.49571], [130.86712, 37.49795], [130.87281, 37.50157], [130.87303, 37.50224], [130.87416, 37.50594], [130.87608, 37.50665], [130.88011, 37.50763], [130.88287, 37.50786], [130.88383, 37.50907], [130.88425, 37.51305], [130.8844, 37.51699], [130.88462, 37.51706], [130.88815, 37.51769], [130.88961, 37.51778], [130.89047, 37.51819], [130.89058, 37.51886], [130.89096, 37.51955], [130.89334, 37.52168], [130.89396, 37.52171], [130.89549, 37.52165], [130.89789, 37.52189], [130.90207, 37.52244], [130.90287, 37.52282], [130.90327, 37.52313], [130.90458, 37.52589], [130.90449, 37.52789], [130.90679, 37.53021], [130.90844, 37.52971], [130.90845, 37.52967], [130.90853, 37.52938], [130.90837, 37.52915]]], [[[130.94008, 37.5311], [130.93993, 37.53019], [130.93987, 37.52915], [130.93981, 37.52684], [130.93981, 37.52683], [130.93981, 37.52681], [130.9398, 37.5268], [130.93967, 37.5266], [130.93966, 37.52659], [130.93956, 37.52649], [130.9388, 37.52591], [130.9386, 37.52577], [130.93856, 37.52574], [130.93845, 37.52569], [130.93833, 37.52566], [130.93799, 37.52562], [130.93793, 37.52563], [130.93784, 37.52569], [130.93775, 37.52576], [130.93734, 37.52609], [130.9362, 37.52755], [130.93574, 37.52816], [130.93568, 37.52827], [130.93561, 37.52838], [130.93554, 37.52851], [130.93536, 37.529], [130.93575, 37.53064], [130.93598, 37.53107], [130.93608, 37.53115], [130.93721, 37.532], [130.93733, 37.53208], [130.93755, 37.53217], [130.93776, 37.53222], [130.93798, 37.53223], [130.93824, 37.53221], [130.93846, 37.53213], [130.93953, 37.53167], [130.94007, 37.53138], [130.94008, 37.5311]]]]}}, {"type": "Feature", "properties": {"name": "서면", "code": "3743031"}, "geometry": {"type": "MultiPolygon", "coordinates": [[[[130.79633, 37.52302], [130.79575, 37.5225], [130.79554, 37.522], [130.79563, 37.5211], [130.79564, 37.52108], [130.79569, 37.5209], [130.79586, 37.52053], [130.796, 37.52034], [130.79602, 37.52032], [130.79619, 37.52017], [130.79627, 37.52012], [130.79638, 37.52005], [130.79911, 37.51917], [130.79989, 37.51895], [130.80011, 37.51891], [130.80054, 37.51888], [130.80138, 37.51884], [130.80219, 37.51896], [130.80247, 37.519], [130.80277, 37.5191], [130.80308, 37.51921], [130.80347, 37.51937], [130.8037, 37.51953], [130.80387, 37.51974], [130.80395, 37.51992], [130.80404, 37.52021], [130.80406, 37.52003], [130.80458, 37.51959], [130.80578, 37.51887], [130.81485, 37.51558], [130.81493, 37.51555], [130.81635, 37.51528], [130.81789, 37.51556], [130.82002, 37.51604], [130.82113, 37.51658], [130.82157, 37.51668], [130.8223, 37.5168], [130.82381, 37.51693], [130.82454, 37.51698], [130.83078, 37.51501], [130.83603, 37.51528], [130.83896, 37.514], [130.84099, 37.51291], [130.84186, 37.51218], [130.84215, 37.51165], [130.8435, 37.5111], [130.84516, 37.51091], [130.84871, 37.51073], [130.84873, 37.51071], [130.84911, 37.50753], [130.84928, 37.50422], [130.85192, 37.5017], [130.85668, 37.49881], [130.8605, 37.49863], [130.8636, 37.4985], [130.86712, 37.49795], [130.86472, 37.49571], [130.86434, 37.4933], [130.86438, 37.49153], [130.86445, 37.49135], [130.86498, 37.48981], [130.86571, 37.48653], [130.86563, 37.48448], [130.86636, 37.48344], [130.867, 37.48303], [130.86701, 37.48304], [130.86752, 37.48277], [130.86776, 37.48239], [130.86767, 37.48178], [130.8673, 37.48037], [130.86664, 37.47833], [130.86515, 37.47499], [130.86364, 37.47167], [130.86555, 37.47043], [130.86778, 37.46899], [130.86872, 37.46849], [130.86872, 37.46848], [130.86784, 37.46652], [130.86757, 37.46621], [130.86736, 37.46581], [130.86726, 37.46549], [130.86719, 37.46523], [130.86724, 37.46379], [130.86735, 37.46325], [130.86737, 37.46316], [130.86753, 37.46272], [130.86763, 37.46255], [130.86838, 37.46177], [130.86872, 37.46143], [130.86924, 37.46091], [130.87014, 37.46011], [130.87028, 37.46005], [130.87091, 37.45961], [130.87097, 37.45956], [130.87291, 37.45744], [130.87365, 37.45622], [130.87357, 37.45562], [130.87358, 37.45533], [130.87358, 37.45532], [130.87429, 37.45452], [130.87507, 37.45373], [130.87511, 37.45368], [130.87514, 37.45364], [130.87512, 37.45363], [130.87505, 37.45359], [130.87501, 37.45357], [130.87497, 37.45355], [130.8749, 37.45352], [130.87479, 37.45348], [130.87428, 37.45328], [130.87415, 37.45324], [130.87414, 37.45324], [130.87413, 37.45324], [130.87407, 37.45324], [130.87406, 37.45325], [130.87385, 37.45329], [130.87381, 37.4533], [130.87356, 37.45338], [130.87322, 37.45348], [130.87305, 37.45356], [130.87284, 37.45366], [130.87283, 37.45367], [130.8728, 37.45369], [130.87277, 37.45371], [130.87275, 37.45373], [130.87274, 37.45374], [130.87274, 37.45375], [130.87252, 37.45408], [130.87247, 37.45416], [130.87224, 37.45473], [130.87216, 37.45496], [130.87211, 37.45515], [130.87162, 37.45613], [130.87131, 37.45663], [130.87108, 37.45696], [130.87069, 37.45743], [130.87063, 37.4575], [130.87044, 37.45771], [130.87007, 37.45807], [130.86985, 37.45824], [130.86935, 37.45852], [130.86878, 37.45878], [130.86842, 37.45892], [130.86822, 37.45899], [130.86772, 37.45915], [130.8644, 37.46015], [130.86401, 37.46026], [130.86382, 37.4603], [130.86365, 37.46034], [130.86344, 37.46038], [130.86332, 37.4604], [130.86329, 37.4604], [130.86168, 37.46037], [130.861, 37.46034], [130.86099, 37.46034], [130.86098, 37.46034], [130.85904, 37.46022], [130.85796, 37.46012], [130.85771, 37.46043], [130.85696, 37.46069], [130.85681, 37.46067], [130.85672, 37.46066], [130.85662, 37.46062], [130.85631, 37.46048], [130.85654, 37.46021], [130.85653, 37.45999], [130.85648, 37.45994], [130.85646, 37.45993], [130.85642, 37.45991], [130.85635, 37.4599], [130.85618, 37.4599], [130.85612, 37.4599], [130.85606, 37.45991], [130.85599, 37.45992], [130.85592, 37.45995], [130.85586, 37.45998], [130.85506, 37.46045], [130.85422, 37.46123], [130.85419, 37.46127], [130.85401, 37.46148], [130.85395, 37.46155], [130.85393, 37.46161], [130.85393, 37.46161], [130.85392, 37.46166], [130.85253, 37.46253], [130.85168, 37.46301], [130.84981, 37.46386], [130.84662, 37.46339], [130.84296, 37.46283], [130.83941, 37.46474], [130.8394, 37.46475], [130.83917, 37.46492], [130.83913, 37.46495], [130.83901, 37.46503], [130.83885, 37.46514], [130.8388, 37.46516], [130.83407, 37.46701], [130.83386, 37.46708], [130.83341, 37.46716], [130.83321, 37.46708], [130.83274, 37.46684], [130.83267, 37.46673], [130.83266, 37.46669], [130.83278, 37.46654], [130.83286, 37.46648], [130.83298, 37.46643], [130.83443, 37.46589], [130.83454, 37.46591], [130.83456, 37.46591], [130.83456, 37.46592], [130.83456, 37.46595], [130.83456, 37.46595], [130.83463, 37.46598], [130.83473, 37.46595], [130.83481, 37.46592], [130.83489, 37.46588], [130.83495, 37.46583], [130.83498, 37.46578], [130.83499, 37.46572], [130.83499, 37.46566], [130.83496, 37.46556], [130.83492, 37.46552], [130.8348, 37.46544], [130.83476, 37.46543], [130.83468, 37.46542], [130.83462, 37.46542], [130.83458, 37.46542], [130.83452, 37.46544], [130.83446, 37.46546], [130.83316, 37.46599], [130.83174, 37.4666], [130.83165, 37.46664], [130.82992, 37.4679], [130.82991, 37.46793], [130.82983, 37.46819], [130.82983, 37.46822], [130.82984, 37.46826], [130.82987, 37.4683], [130.83026, 37.46863], [130.83068, 37.4686], [130.83078, 37.46885], [130.83078, 37.46898], [130.83075, 37.46912], [130.83071, 37.46925], [130.83065, 37.46935], [130.83058, 37.46946], [130.8305, 37.46957], [130.83042, 37.46966], [130.82986, 37.47027], [130.82977, 37.47036], [130.82963, 37.47048], [130.82949, 37.47056], [130.82933, 37.47064], [130.8278, 37.47134], [130.82762, 37.47139], [130.82738, 37.47146], [130.82437, 37.47225], [130.8241, 37.47231], [130.82338, 37.47245], [130.82264, 37.47259], [130.82187, 37.47273], [130.82158, 37.47277], [130.82003, 37.47288], [130.81999, 37.47289], [130.81996, 37.47289], [130.81988, 37.47289], [130.81983, 37.47288], [130.81983, 37.47288], [130.81967, 37.47285], [130.81966, 37.47284], [130.81938, 37.47274], [130.81924, 37.47269], [130.81914, 37.47265], [130.81911, 37.47264], [130.81653, 37.47269], [130.81258, 37.47359], [130.81235, 37.47365], [130.81217, 37.47371], [130.81185, 37.47385], [130.81114, 37.47417], [130.8111, 37.47419], [130.80996, 37.47491], [130.80996, 37.47492], [130.80987, 37.47506], [130.80959, 37.4755], [130.80919, 37.47619], [130.80906, 37.47645], [130.80897, 37.47668], [130.80891, 37.47687], [130.80877, 37.47755], [130.80872, 37.47789], [130.8087, 37.4781], [130.8088, 37.4781], [130.80882, 37.4781], [130.80884, 37.47811], [130.80884, 37.47811], [130.80892, 37.47833], [130.80892, 37.47836], [130.80897, 37.47859], [130.80897, 37.47862], [130.809, 37.4788], [130.809, 37.47882], [130.80899, 37.47883], [130.80899, 37.47892], [130.80891, 37.47957], [130.80891, 37.47962], [130.80886, 37.47992], [130.80879, 37.4802], [130.80877, 37.48024], [130.80873, 37.48036], [130.80866, 37.48051], [130.80846, 37.48081], [130.80844, 37.48083], [130.80804, 37.48126], [130.8079, 37.48139], [130.80764, 37.48158], [130.80708, 37.48198], [130.80701, 37.48202], [130.80661, 37.48221], [130.80558, 37.48269], [130.80438, 37.48321], [130.80397, 37.48329], [130.80377, 37.48332], [130.80246, 37.4837], [130.80226, 37.48386], [130.80209, 37.48402], [130.80189, 37.48457], [130.80187, 37.48464], [130.80187, 37.4847], [130.80184, 37.48508], [130.80181, 37.48841], [130.80183, 37.4892], [130.80196, 37.49022], [130.80335, 37.497], [130.80336, 37.49704], [130.8034, 37.4971], [130.80346, 37.49719], [130.80351, 37.49723], [130.80361, 37.49729], [130.80367, 37.49733], [130.80378, 37.49737], [130.80386, 37.4974], [130.80404, 37.49747], [130.80437, 37.49764], [130.80447, 37.49771], [130.80457, 37.49778], [130.8047, 37.49788], [130.80495, 37.49815], [130.80497, 37.49819], [130.80501, 37.49826], [130.80502, 37.4983], [130.80503, 37.49836], [130.80503, 37.49839], [130.80503, 37.49848], [130.80503, 37.49849], [130.80479, 37.49922], [130.80475, 37.49931], [130.80466, 37.49953], [130.80465, 37.49956], [130.80459, 37.49967], [130.80456, 37.49972], [130.80453, 37.49976], [130.80448, 37.4998], [130.80422, 37.50005], [130.80419, 37.50006], [130.80336, 37.50031], [130.80216, 37.50061], [130.8028, 37.50158], [130.80487, 37.50259], [130.80493, 37.50266], [130.80496, 37.50274], [130.805, 37.50288], [130.80501, 37.50308], [130.805, 37.50326], [130.80496, 37.50351], [130.80489, 37.50391], [130.80418, 37.50507], [130.80407, 37.50523], [130.80395, 37.50537], [130.80343, 37.50582], [130.80322, 37.50596], [130.80234, 37.50637], [130.80232, 37.50638], [130.8023, 37.50638], [130.80228, 37.50638], [130.80205, 37.50632], [130.80203, 37.50631], [130.80202, 37.5063], [130.802, 37.50629], [130.80198, 37.50626], [130.80132, 37.50639], [130.80057, 37.50712], [130.80051, 37.50722], [130.8, 37.50835], [130.79934, 37.5099], [130.79774, 37.51225], [130.79763, 37.51241], [130.79749, 37.51258], [130.7971, 37.51294], [130.79701, 37.51301], [130.79661, 37.5133], [130.79636, 37.51345], [130.79606, 37.51361], [130.7959, 37.51369], [130.79579, 37.51373], [130.79571, 37.51375], [130.79562, 37.51375], [130.79492, 37.5138], [130.79484, 37.5138], [130.79471, 37.5138], [130.7947, 37.51379], [130.79466, 37.51371], [130.79466, 37.51369], [130.79466, 37.51367], [130.79471, 37.51363], [130.79482, 37.51357], [130.79489, 37.51352], [130.79496, 37.51346], [130.79498, 37.51341], [130.795, 37.51336], [130.795, 37.51335], [130.79499, 37.51332], [130.79495, 37.5133], [130.7941, 37.5133], [130.79392, 37.51333], [130.79379, 37.51335], [130.79368, 37.51338], [130.7935, 37.51345], [130.79299, 37.51369], [130.79293, 37.51373], [130.7916, 37.51822], [130.79158, 37.51831], [130.79169, 37.51881], [130.79369, 37.52303], [130.7961, 37.52353], [130.79625, 37.52353], [130.79635, 37.52349], [130.79641, 37.52338], [130.79641, 37.52324], [130.7964, 37.52312], [130.79633, 37.52302]]]]}}, {"type": "Feature", "properties": {"name": "북면", "code": "3743032"}, "geometry": {"type": "MultiPolygon", "coordinates": [[[[130.92374, 37.54432], [130.92403, 37.54432], [130.92413, 37.5443], [130.92413, 37.5442], [130.92406, 37.54406], [130.92395, 37.54391], [130.92381, 37.54372], [130.92219, 37.54199], [130.922, 37.54187], [130.92166, 37.54166], [130.92151, 37.54163], [130.92147, 37.54163], [130.92104, 37.54172], [130.92068, 37.54184], [130.9195, 37.54232], [130.91886, 37.54264], [130.91875, 37.54274], [130.91869, 37.5429], [130.91868, 37.54298], [130.91868, 37.54298], [130.91868, 37.54299], [130.91897, 37.54345], [130.91907, 37.54351], [130.92328, 37.54467], [130.92374, 37.54432]]], [[[130.90555, 37.54914], [130.90567, 37.54913], [130.90568, 37.54913], [130.90569, 37.54913], [130.90733, 37.54865], [130.90734, 37.54864], [130.90738, 37.54863], [130.90761, 37.5485], [130.90762, 37.5485], [130.90765, 37.54847], [130.90766, 37.54847], [130.90859, 37.54749], [130.90863, 37.54744], [130.90912, 37.54616], [130.90912, 37.54615], [130.90913, 37.54606], [130.90912, 37.546], [130.90911, 37.54586], [130.90893, 37.54491], [130.90879, 37.54479], [130.9085, 37.54473], [130.9085, 37.54472], [130.90848, 37.54469], [130.90848, 37.54431], [130.90849, 37.54419], [130.90856, 37.54407], [130.91021, 37.5419], [130.91023, 37.54188], [130.91025, 37.54186], [130.91043, 37.54166], [130.91045, 37.54165], [130.91063, 37.54156], [130.91115, 37.5414], [130.91144, 37.54132], [130.91167, 37.5413], [130.91686, 37.54158], [130.9169, 37.54159], [130.91693, 37.54159], [130.91697, 37.5416], [130.91702, 37.54162], [130.91709, 37.54165], [130.91716, 37.54169], [130.91732, 37.54181], [130.9175, 37.54193], [130.91794, 37.54211], [130.91809, 37.54214], [130.91827, 37.54214], [130.91848, 37.54208], [130.91868, 37.54198], [130.91886, 37.54183], [130.91899, 37.5417], [130.91948, 37.5411], [130.91954, 37.54093], [130.91955, 37.54082], [130.91953, 37.54046], [130.91951, 37.54039], [130.91943, 37.54035], [130.91389, 37.53862], [130.91242, 37.5383], [130.91241, 37.5383], [130.91226, 37.53825], [130.91214, 37.53821], [130.91204, 37.53818], [130.91186, 37.53806], [130.91148, 37.53761], [130.91112, 37.53719], [130.91099, 37.53691], [130.91097, 37.53682], [130.91102, 37.53673], [130.91141, 37.53532], [130.90934, 37.53089], [130.90853, 37.52938], [130.90845, 37.52967], [130.90844, 37.52971], [130.90679, 37.53021], [130.90449, 37.52789], [130.90458, 37.52589], [130.90327, 37.52313], [130.90287, 37.52282], [130.90207, 37.52244], [130.89789, 37.52189], [130.89549, 37.52165], [130.89396, 37.52171], [130.89334, 37.52168], [130.89096, 37.51955], [130.89058, 37.51886], [130.89047, 37.51819], [130.88961, 37.51778], [130.88815, 37.51769], [130.88462, 37.51706], [130.8844, 37.51699], [130.88425, 37.51305], [130.88383, 37.50907], [130.88287, 37.50786], [130.88011, 37.50763], [130.87608, 37.50665], [130.87416, 37.50594], [130.87303, 37.50224], [130.87281, 37.50157], [130.86712, 37.49795], [130.8636, 37.4985], [130.8605, 37.49863], [130.85668, 37.49881], [130.85192, 37.5017], [130.84928, 37.50422], [130.84911, 37.50753], [130.84873, 37.51071], [130.84871, 37.51073], [130.84516, 37.51091], [130.8435, 37.5111], [130.84215, 37.51165], [130.84186, 37.51218], [130.84099, 37.51291], [130.83896, 37.514], [130.83603, 37.51528], [130.83078, 37.51501], [130.82454, 37.51698], [130.82381, 37.51693], [130.8223, 37.5168], [130.82157, 37.51668], [130.82113, 37.51658], [130.82002, 37.51604], [130.81789, 37.51556], [130.81635, 37.51528], [130.81493, 37.51555], [130.81485, 37.51558], [130.80578, 37.51887], [130.80458, 37.51959], [130.80406, 37.52003], [130.80404, 37.52021], [130.80477, 37.5209], [130.80495, 37.52107], [130.80498, 37.52109], [130.80581, 37.52163], [130.80582, 37.52163], [130.80582, 37.52164], [130.80584, 37.52164], [130.80585, 37.52164], [130.80586, 37.52164], [130.80632, 37.5217], [130.80706, 37.52179], [130.80825, 37.52184], [130.80868, 37.52172], [130.80883, 37.52166], [130.80883, 37.52166], [130.80885, 37.52166], [130.80981, 37.52163], [130.80998, 37.52163], [130.81001, 37.52162], [130.81005, 37.52162], [130.81005, 37.52163], [130.81097, 37.52174], [130.81101, 37.52175], [130.81149, 37.52183], [130.81156, 37.52184], [130.81236, 37.52197], [130.8124, 37.52198], [130.8124, 37.52198], [130.81252, 37.52201], [130.81255, 37.52202], [130.81258, 37.52203], [130.81269, 37.52207], [130.81272, 37.52209], [130.81337, 37.52239], [130.81347, 37.52243], [130.81364, 37.52254], [130.81389, 37.52269], [130.81418, 37.5229], [130.81432, 37.52301], [130.81445, 37.52314], [130.8149, 37.5236], [130.81492, 37.52362], [130.81496, 37.52368], [130.81509, 37.52385], [130.8151, 37.52386], [130.81515, 37.52394], [130.81519, 37.524], [130.81874, 37.52631], [130.82292, 37.52897], [130.82326, 37.52889], [130.82301, 37.5285], [130.82259, 37.5278], [130.8225, 37.52743], [130.82258, 37.52739], [130.82394, 37.52674], [130.82768, 37.52644], [130.8277, 37.52644], [130.82786, 37.52646], [130.82833, 37.52657], [130.82964, 37.52691], [130.82969, 37.52693], [130.83015, 37.52724], [130.83021, 37.52729], [130.83034, 37.5274], [130.83047, 37.52753], [130.83051, 37.52757], [130.83052, 37.52759], [130.83053, 37.52761], [130.83053, 37.52763], [130.83053, 37.52764], [130.83053, 37.52765], [130.83053, 37.52767], [130.83042, 37.52832], [130.83093, 37.52879], [130.83262, 37.52968], [130.83634, 37.53135], [130.84021, 37.53354], [130.8403, 37.53363], [130.84041, 37.53371], [130.84101, 37.53403], [130.84115, 37.5341], [130.84201, 37.53442], [130.84494, 37.53537], [130.84496, 37.53537], [130.84497, 37.53537], [130.84497, 37.53537], [130.84533, 37.53543], [130.84569, 37.53546], [130.84741, 37.53548], [130.84743, 37.53548], [130.84744, 37.53548], [130.8477, 37.53545], [130.84772, 37.53545], [130.84773, 37.53544], [130.84774, 37.53544], [130.84826, 37.53521], [130.84858, 37.535], [130.85137, 37.53448], [130.85718, 37.53454], [130.86081, 37.53548], [130.86161, 37.53589], [130.86171, 37.53593], [130.86182, 37.53596], [130.86194, 37.53598], [130.86421, 37.53626], [130.86589, 37.53644], [130.86622, 37.53644], [130.86636, 37.53648], [130.86684, 37.53662], [130.86715, 37.53673], [130.86717, 37.53674], [130.86732, 37.53681], [130.86735, 37.53683], [130.86739, 37.53685], [130.86739, 37.53685], [130.86742, 37.53687], [130.86745, 37.53689], [130.86745, 37.5369], [130.86861, 37.53817], [130.87435, 37.54293], [130.87611, 37.54313], [130.88032, 37.54338], [130.88117, 37.54318], [130.88142, 37.54312], [130.88838, 37.54128], [130.88845, 37.54124], [130.88849, 37.54123], [130.88957, 37.54098], [130.88965, 37.54096], [130.88981, 37.54093], [130.88986, 37.54092], [130.88996, 37.54091], [130.89036, 37.54087], [130.89042, 37.54087], [130.8905, 37.54086], [130.89056, 37.54086], [130.89063, 37.54086], [130.89083, 37.54088], [130.8915, 37.54098], [130.89161, 37.541], [130.89191, 37.54107], [130.89211, 37.54113], [130.8925, 37.54126], [130.89263, 37.54132], [130.89278, 37.54139], [130.89289, 37.54146], [130.89462, 37.54261], [130.89468, 37.54266], [130.8947, 37.54272], [130.89474, 37.54287], [130.89479, 37.54308], [130.89484, 37.54331], [130.89488, 37.54337], [130.8956, 37.54444], [130.89662, 37.54585], [130.89669, 37.54594], [130.89678, 37.54601], [130.89779, 37.54666], [130.89953, 37.54775], [130.89961, 37.54779], [130.89976, 37.54786], [130.9003, 37.54808], [130.9005, 37.54817], [130.90267, 37.54894], [130.90296, 37.549], [130.90332, 37.54902], [130.90555, 37.54914]]]]}}]}