<?xml version="1.0" encoding="UTF-8"?>
<kml xmlns="http://www.opengis.net/kml/2.2"><Document>
<name>울릉 국지도 90호선 · 도동항 양측 용지보상 예상 구역</name>
<description>2026-09-06 판독. 공개정보 기반 추정이며 필지 경계가 아님. 좌표 WGS84.</description>
<Style id="z_hi"><LineStyle><color>ff2A35A2</color><width>2.4</width></LineStyle><PolyStyle><color>592A35A2</color></PolyStyle></Style>
<Style id="z_mid"><LineStyle><color>ff3C79C2</color><width>2.4</width></LineStyle><PolyStyle><color>593C79C2</color></PolyStyle></Style>
<Style id="z_lo"><LineStyle><color>ff74ABCB</color><width>2.4</width></LineStyle><PolyStyle><color>5974ABCB</color></PolyStyle></Style>
<Style id="z_none"><LineStyle><color>ff8F978B</color><width>2.4</width></LineStyle><PolyStyle><color>598F978B</color></PolyStyle></Style>
<Style id="z_fix"><LineStyle><color>ff625E1D</color><width>2.4</width></LineStyle><PolyStyle><color>59625E1D</color></PolyStyle></Style>
<Style id="z_ref"><LineStyle><color>ffA08F8A</color><width>2.4</width></LineStyle><PolyStyle><color>59A08F8A</color></PolyStyle></Style>
<Style id="axis_s"><LineStyle><color>ff2A35A2</color><width>5</width></LineStyle></Style>
<Style id="axis_n"><LineStyle><color>ff625E1D</color><width>5</width></LineStyle></Style>
<Style id="axis_m"><LineStyle><color>ff404846</color><width>4</width></LineStyle></Style>
<Style id="axis_p"><LineStyle><color>ff707878</color><width>3</width></LineStyle></Style>
<Folder><name>보상 예상 구역</name>
<Placemark><name>H1 · 도동항 부두·배후 접면 (양측 공통 시·종점)</name><description><![CDATA[위치: 도동리 · 도동항 서측 부두, 도동길·도동2길 하단
등급: 보상 개연성 높음
보상 유형: 토지 매수 + 건물·영업 지장물 (단가 최고)
근거: 남측(사동)·북측(저동) 두 축이 모두 도동항에서 출발합니다. 위성사진상 부두 끝까지 건물이 붙어 있어(활어회센타·소공원·해경 도동출장소·주차장·펜션·상가) 어느 방향이든 이 접면을 건드리면 지장물 보상이 가장 크게 발생합니다.
확인수준: 추정 — 위성 판독 + 노선 미공표
표시: 중심 반경 170m 원 (필지 경계 아님)]]></description><styleUrl>#z_hi</styleUrl><Polygon><altitudeMode>clampToGround</altitudeMode><outerBoundaryIs><LinearRing><coordinates>130.909424,37.4824,0 130.909415,37.482551,0 130.909387,37.4827,0 130.909342,37.482846,0 130.909278,37.482988,0 130.909197,37.483125,0 130.9091,37.483254,0 130.908988,37.483375,0 130.908861,37.483487,0 130.908721,37.483588,0 130.908569,37.483678,0 130.908407,37.483756,0 130.908236,37.48382,0 130.908059,37.483871,0 130.907875,37.483908,0 130.907689,37.48393,0 130.9075,37.483937,0 130.907311,37.48393,0 130.907125,37.483908,0 130.906941,37.483871,0 130.906764,37.48382,0 130.906593,37.483756,0 130.906431,37.483678,0 130.906279,37.483588,0 130.906139,37.483487,0 130.906012,37.483375,0 130.9059,37.483254,0 130.905803,37.483125,0 130.905722,37.482988,0 130.905658,37.482846,0 130.905613,37.4827,0 130.905585,37.482551,0 130.905576,37.4824,0 130.905585,37.482249,0 130.905613,37.4821,0 130.905658,37.481954,0 130.905722,37.481812,0 130.905803,37.481675,0 130.9059,37.481546,0 130.906012,37.481425,0 130.906139,37.481313,0 130.906279,37.481212,0 130.906431,37.481122,0 130.906593,37.481044,0 130.906764,37.48098,0 130.906941,37.480929,0 130.907125,37.480892,0 130.907311,37.48087,0 130.9075,37.480863,0 130.907689,37.48087,0 130.907875,37.480892,0 130.908059,37.480929,0 130.908236,37.48098,0 130.908407,37.481044,0 130.908569,37.481122,0 130.908721,37.481212,0 130.908861,37.481313,0 130.908988,37.481425,0 130.9091,37.481546,0 130.909197,37.481675,0 130.909278,37.481812,0 130.909342,37.481954,0 130.909387,37.4821,0 130.909415,37.482249,0 130.909424,37.4824,0</coordinates></LinearRing></outerBoundaryIs></Polygon></Placemark>
<Placemark><name>H2 · 도동길 지선 · 시가지 협곡 통과부 (양측 공통)</name><description><![CDATA[위치: 도동리 · 도동항 ~ 90호선 본선 접속점, 약 0.8 km
등급: 중간
보상 유형: 지선 개량 시 도로변 건물 직접 편입
근거: 도동항에서 남·북 어느 쪽으로 가든 이 지선을 지나 90호선 본선에 붙습니다. 폭 100 m 남짓 골짜기에 군청·경찰서·읍사무소·상가·주택이 빽빽해, 이 지선을 넓히는 방식이면 보상비가 폭증합니다. 신설 본선은 이 구간을 피할 개연성이 큽니다.
확인수준: 추정 — 위성·지형 판독
표시: 축선 좌우 95m 띠 (필지 경계 아님)]]></description><styleUrl>#z_mid</styleUrl><Polygon><altitudeMode>clampToGround</altitudeMode><outerBoundaryIs><LinearRing><coordinates>130.907831,37.481055,0 130.907043,37.482501,0 130.905476,37.483519,0 130.904334,37.483711,0 130.902918,37.484394,0 130.90194,37.485534,0 130.900894,37.486252,0 130.902306,37.487548,0 130.90356,37.486666,0 130.904442,37.485606,0 130.905126,37.485309,0 130.906564,37.485001,0 130.908737,37.483559,0 130.909789,37.481765,0 130.907831,37.481055,0</coordinates></LinearRing></outerBoundaryIs></Polygon></Placemark>
<Placemark><name>S2 · 도동항 동측 터미널 진입부</name><description><![CDATA[위치: 도동리 · 울릉(도동항)여객선터미널 진입도로, 절개 사면
등급: 중간
보상 유형: 토지 매수(절개지) · 항만시설 관계기관 협의
근거: 신 여객선터미널이 동측 절개지에 놓이고 진입도로가 해안을 따라 붙어 있습니다. 여객 동선을 신설도로에 직결한다면 이쪽이 유리하나 배후가 급애라 확장 여지가 작습니다.
확인수준: 추정 — 위성 판독
표시: 중심 반경 135m 원 (필지 경계 아님)]]></description><styleUrl>#z_mid</styleUrl><Polygon><altitudeMode>clampToGround</altitudeMode><outerBoundaryIs><LinearRing><coordinates>130.911528,37.48225,0 130.911521,37.48237,0 130.911499,37.482488,0 130.911462,37.482604,0 130.911412,37.482717,0 130.911348,37.482826,0 130.911271,37.482928,0 130.911181,37.483025,0 130.911081,37.483113,0 130.91097,37.483194,0 130.910849,37.483265,0 130.91072,37.483327,0 130.910585,37.483378,0 130.910444,37.483418,0 130.910298,37.483447,0 130.91015,37.483465,0 130.91,37.483471,0 130.90985,37.483465,0 130.909702,37.483447,0 130.909556,37.483418,0 130.909415,37.483378,0 130.90928,37.483327,0 130.909151,37.483265,0 130.90903,37.483194,0 130.908919,37.483113,0 130.908819,37.483025,0 130.908729,37.482928,0 130.908652,37.482826,0 130.908588,37.482717,0 130.908538,37.482604,0 130.908501,37.482488,0 130.908479,37.48237,0 130.908472,37.48225,0 130.908479,37.48213,0 130.908501,37.482012,0 130.908538,37.481896,0 130.908588,37.481783,0 130.908652,37.481674,0 130.908729,37.481572,0 130.908819,37.481475,0 130.908919,37.481387,0 130.90903,37.481306,0 130.909151,37.481235,0 130.90928,37.481173,0 130.909415,37.481122,0 130.909556,37.481082,0 130.909702,37.481053,0 130.90985,37.481035,0 130.91,37.481029,0 130.91015,37.481035,0 130.910298,37.481053,0 130.910444,37.481082,0 130.910585,37.481122,0 130.91072,37.481173,0 130.910849,37.481235,0 130.91097,37.481306,0 130.911081,37.481387,0 130.911181,37.481475,0 130.911271,37.481572,0 130.911348,37.481674,0 130.911412,37.481783,0 130.911462,37.481896,0 130.911499,37.482012,0 130.911521,37.48213,0 130.911528,37.48225,0</coordinates></LinearRing></outerBoundaryIs></Polygon></Placemark>
<Placemark><name>S3 · 남서 급애 갱구부(추정)</name><description><![CDATA[위치: 도동리 · 독도일출전망대 아래 급애 사면
등급: 중간
보상 유형: 토지 매수(갱구·사면) · 국유림이면 관리전환
근거: 도동항에서 사동 방면으로 나가려면 곧바로 이 절벽을 뚫어야 합니다. 터널 시점부의 갱구 절취와 사면 정리 범위가 지표 편입분입니다.
확인수준: 추정 — 지형·위성 판독
표시: 중심 반경 230m 원 (필지 경계 아님)]]></description><styleUrl>#z_mid</styleUrl><Polygon><altitudeMode>clampToGround</altitudeMode><outerBoundaryIs><LinearRing><coordinates>130.906704,37.4787,0 130.906691,37.478904,0 130.906654,37.479106,0 130.906591,37.479304,0 130.906505,37.479496,0 130.906396,37.479681,0 130.906265,37.479856,0 130.906113,37.48002,0 130.905941,37.480171,0 130.905752,37.480308,0 130.905546,37.48043,0 130.905327,37.480534,0 130.905096,37.480622,0 130.904856,37.48069,0 130.904608,37.48074,0 130.904355,37.48077,0 130.9041,37.48078,0 130.903845,37.48077,0 130.903592,37.48074,0 130.903344,37.48069,0 130.903104,37.480622,0 130.902873,37.480534,0 130.902654,37.48043,0 130.902448,37.480308,0 130.902259,37.480171,0 130.902087,37.48002,0 130.901935,37.479856,0 130.901804,37.479681,0 130.901695,37.479496,0 130.901609,37.479304,0 130.901546,37.479106,0 130.901509,37.478904,0 130.901496,37.4787,0 130.901509,37.478496,0 130.901546,37.478294,0 130.901609,37.478096,0 130.901695,37.477904,0 130.901804,37.477719,0 130.901935,37.477544,0 130.902087,37.47738,0 130.902259,37.477229,0 130.902448,37.477092,0 130.902654,37.47697,0 130.902873,37.476866,0 130.903104,37.476778,0 130.903344,37.47671,0 130.903592,37.47666,0 130.903845,37.47663,0 130.9041,37.47662,0 130.904355,37.47663,0 130.904608,37.47666,0 130.904856,37.47671,0 130.905096,37.476778,0 130.905327,37.476866,0 130.905546,37.47697,0 130.905752,37.477092,0 130.905941,37.477229,0 130.906113,37.47738,0 130.906265,37.477544,0 130.906396,37.477719,0 130.906505,37.477904,0 130.906591,37.478096,0 130.906654,37.478294,0 130.906691,37.478496,0 130.906704,37.4787,0</coordinates></LinearRing></outerBoundaryIs></Polygon></Placemark>
<Placemark><name>S4 · 해안 절벽 터널 통과부(추정)</name><description><![CDATA[위치: 도동리 ~ 사동리 해안 능선 하부
등급: 지표 보상 없음
보상 유형: 지표 매수 없음 · 지하 구분지상권 설정 보상
근거: 도동~사동 해안은 도로가 전혀 없는 급애입니다. 확정 2.7 km 중 대부분이 이 구간 터널일 수밖에 없고, 터널 아래 토지는 매수 대상이 아닙니다.
확인수준: 추정 — 최소선형 계산 + 위성 판독
표시: 축선 좌우 260m 띠 (필지 경계 아님)]]></description><styleUrl>#z_none</styleUrl><Polygon><altitudeMode>clampToGround</altitudeMode><outerBoundaryIs><LinearRing><coordinates>130.911097,37.480874,0 130.910159,37.479402,0 130.908606,37.478418,0 130.907656,37.477878,0 130.906706,37.477348,0 130.905756,37.476808,0 130.904806,37.476278,0 130.903856,37.475738,0 130.902906,37.475208,0 130.900743,37.47427,0 130.898525,37.474441,0 130.89757,37.474348,0 130.896679,37.474318,0 130.896354,37.47417,0 130.896067,37.474045,0 130.893509,37.472498,0 130.890953,37.473141,0 130.891622,37.473045,0 130.890672,37.472515,0 130.890062,37.47239,0 130.889749,37.471872,0 130.887588,37.470437,0 130.885644,37.470391,0 130.886002,37.47054,0 130.885841,37.470189,0 130.880939,37.472791,0 130.882158,37.4741,0 130.884676,37.475029,0 130.885672,37.474883,0 130.885151,37.474808,0 130.886218,37.47595,0 130.887768,37.476605,0 130.888718,37.477135,0 130.891547,37.477819,0 130.892991,37.477182,0 130.891813,37.477295,0 130.893426,37.47825,0 130.895261,37.478882,0 130.89705,37.479032,0 130.898775,37.479139,0 130.899777,37.47891,0 130.899514,37.479052,0 130.900464,37.479582,0 130.901414,37.480122,0 130.902364,37.480652,0 130.903314,37.481192,0 130.904264,37.481722,0 130.905214,37.482262,0 130.905561,37.482338,0 130.905743,37.482826,0 130.911097,37.480874,0</coordinates></LinearRing></outerBoundaryIs></Polygon></Placemark>
<Placemark><name>S5 · 사동측 접속·종점부</name><description><![CDATA[위치: 사동리 · 울릉순환로 650~700번대 상부
등급: 보상 개연성 높음
보상 유형: 토지 매수 + 건물·영업 지장물
근거: 도동항에서 육상 최소선형을 따라 2.7 km가 닿는 지점입니다. 순환로변에 펜션·주택·농지가 이어져 사유지 편입 개연성이 높습니다.
확인수준: 추정 — 확정 연장 2.7 km 역산
표시: 중심 반경 330m 원 (필지 경계 아님)]]></description><styleUrl>#z_hi</styleUrl><Polygon><altitudeMode>clampToGround</altitudeMode><outerBoundaryIs><LinearRing><coordinates>130.887135,37.4713,0 130.887117,37.471593,0 130.887063,37.471882,0 130.886974,37.472166,0 130.886851,37.472442,0 130.886694,37.472707,0 130.886506,37.472958,0 130.886287,37.473193,0 130.886041,37.47341,0 130.88577,37.473607,0 130.885475,37.473781,0 130.885161,37.473932,0 130.884829,37.474057,0 130.884484,37.474156,0 130.884129,37.474227,0 130.883766,37.47427,0 130.8834,37.474284,0 130.883034,37.47427,0 130.882671,37.474227,0 130.882316,37.474156,0 130.881971,37.474057,0 130.881639,37.473932,0 130.881325,37.473781,0 130.88103,37.473607,0 130.880759,37.47341,0 130.880513,37.473193,0 130.880294,37.472958,0 130.880106,37.472707,0 130.879949,37.472442,0 130.879826,37.472166,0 130.879737,37.471882,0 130.879683,37.471593,0 130.879665,37.4713,0 130.879683,37.471007,0 130.879737,37.470718,0 130.879826,37.470434,0 130.879949,37.470158,0 130.880106,37.469893,0 130.880294,37.469642,0 130.880513,37.469407,0 130.880759,37.46919,0 130.88103,37.468993,0 130.881325,37.468819,0 130.881639,37.468668,0 130.881971,37.468543,0 130.882316,37.468444,0 130.882671,37.468373,0 130.883034,37.46833,0 130.8834,37.468316,0 130.883766,37.46833,0 130.884129,37.468373,0 130.884484,37.468444,0 130.884829,37.468543,0 130.885161,37.468668,0 130.885475,37.468819,0 130.88577,37.468993,0 130.886041,37.46919,0 130.886287,37.469407,0 130.886506,37.469642,0 130.886694,37.469893,0 130.886851,37.470158,0 130.886974,37.470434,0 130.887063,37.470718,0 130.887117,37.471007,0 130.887135,37.4713,0</coordinates></LinearRing></outerBoundaryIs></Polygon></Placemark>
<Placemark><name>S6 · 90호선 본선 남측 분기부(대안)</name><description><![CDATA[위치: 도동리 · 울릉순환로 396~415(보건의료원~119안전센터) 일원
등급: 보상 개연성 높음
보상 유형: 토지 매수 + 건물·영업 지장물
근거: 신설도로를 도동항이 아니라 90호선 본선에서 직접 분기시키는 대안입니다. 이 경우 도동항 접면(H1)은 편입을 피하고 보상이 이쪽으로 옮겨갑니다. 두 안 중 어느 쪽인지가 남측 보상 위치를 가릅니다.
확인수준: 추정 — 본선 접속 대안
표시: 중심 반경 250m 원 (필지 경계 아님)]]></description><styleUrl>#z_hi</styleUrl><Polygon><altitudeMode>clampToGround</altitudeMode><outerBoundaryIs><LinearRing><coordinates>130.90163,37.485,0 130.901617,37.485222,0 130.901576,37.485441,0 130.901508,37.485656,0 130.901415,37.485865,0 130.901296,37.486066,0 130.901153,37.486256,0 130.900988,37.486434,0 130.900801,37.486599,0 130.900595,37.486748,0 130.900372,37.48688,0 130.900134,37.486994,0 130.899883,37.487089,0 130.899622,37.487164,0 130.899352,37.487217,0 130.899077,37.48725,0 130.8988,37.487261,0 130.898523,37.48725,0 130.898248,37.487217,0 130.897978,37.487164,0 130.897717,37.487089,0 130.897466,37.486994,0 130.897228,37.48688,0 130.897005,37.486748,0 130.896799,37.486599,0 130.896612,37.486434,0 130.896447,37.486256,0 130.896304,37.486066,0 130.896185,37.485865,0 130.896092,37.485656,0 130.896024,37.485441,0 130.895983,37.485222,0 130.89597,37.485,0 130.895983,37.484778,0 130.896024,37.484559,0 130.896092,37.484344,0 130.896185,37.484135,0 130.896304,37.483934,0 130.896447,37.483744,0 130.896612,37.483566,0 130.896799,37.483401,0 130.897005,37.483252,0 130.897228,37.48312,0 130.897466,37.483006,0 130.897717,37.482911,0 130.897978,37.482836,0 130.898248,37.482783,0 130.898523,37.48275,0 130.8988,37.482739,0 130.899077,37.48275,0 130.899352,37.482783,0 130.899622,37.482836,0 130.899883,37.482911,0 130.900134,37.483006,0 130.900372,37.48312,0 130.900595,37.483252,0 130.900801,37.483401,0 130.900988,37.483566,0 130.901153,37.483744,0 130.901296,37.483934,0 130.901415,37.484135,0 130.901508,37.484344,0 130.901576,37.484559,0 130.901617,37.484778,0 130.90163,37.485,0</coordinates></LinearRing></outerBoundaryIs></Polygon></Placemark>
<Placemark><name>N1 · 북측 기점부 · 순환로 352~286</name><description><![CDATA[위치: 도동리 · 수협주유소~한마음회관 구간
등급: 중간
보상 유형: 토지 매수 + 도로변 지장물
근거: 도동항에서 지선을 타고 올라와 저동으로 향하는 90호선 본선의 첫 구간입니다. 주유소·회관·공공시설이 도로변에 붙어 있어 확폭·선형개량 시 직접 편입됩니다.
확인수준: 추정 — 좌표·도로명번호 대조
표시: 중심 반경 280m 원 (필지 경계 아님)]]></description><styleUrl>#z_mid</styleUrl><Polygon><altitudeMode>clampToGround</altitudeMode><outerBoundaryIs><LinearRing><coordinates>130.90667,37.4892,0 130.906655,37.489448,0 130.906609,37.489694,0 130.906533,37.489935,0 130.906429,37.490169,0 130.906296,37.490394,0 130.906136,37.490607,0 130.90595,37.490806,0 130.905742,37.490991,0 130.905511,37.491157,0 130.905261,37.491305,0 130.904994,37.491433,0 130.904713,37.491539,0 130.90442,37.491623,0 130.904118,37.491684,0 130.903811,37.49172,0 130.9035,37.491732,0 130.903189,37.49172,0 130.902882,37.491684,0 130.90258,37.491623,0 130.902287,37.491539,0 130.902006,37.491433,0 130.901739,37.491305,0 130.901489,37.491157,0 130.901258,37.490991,0 130.90105,37.490806,0 130.900864,37.490607,0 130.900704,37.490394,0 130.900571,37.490169,0 130.900467,37.489935,0 130.900391,37.489694,0 130.900345,37.489448,0 130.90033,37.4892,0 130.900345,37.488952,0 130.900391,37.488706,0 130.900467,37.488465,0 130.900571,37.488231,0 130.900704,37.488006,0 130.900864,37.487793,0 130.90105,37.487594,0 130.901258,37.487409,0 130.901489,37.487243,0 130.901739,37.487095,0 130.902006,37.486967,0 130.902287,37.486861,0 130.90258,37.486777,0 130.902882,37.486716,0 130.903189,37.48668,0 130.9035,37.486668,0 130.903811,37.48668,0 130.904118,37.486716,0 130.90442,37.486777,0 130.904713,37.486861,0 130.904994,37.486967,0 130.905261,37.487095,0 130.905511,37.487243,0 130.905742,37.487409,0 130.90595,37.487594,0 130.906136,37.487793,0 130.906296,37.488006,0 130.906429,37.488231,0 130.906533,37.488465,0 130.906609,37.488706,0 130.906655,37.488952,0 130.90667,37.4892,0</coordinates></LinearRing></outerBoundaryIs></Polygon></Placemark>
<Placemark><name>N2 · 울릉소방서 신축 예정지</name><description><![CDATA[위치: 도동리 414-8 · 2027년 예정
등급: 지표 보상 없음
보상 유형: 공공시설 부지 — 확보 완료 추정
근거: 위성사진에 정지된 부지가 확인됩니다. 이미 확보된 공공용지로 보이며 도로사업의 신규 편입 대상은 아닐 개연성이 큽니다.
확인수준: 위성 판독 + POI 등록
표시: 중심 반경 130m 원 (필지 경계 아님)]]></description><styleUrl>#z_none</styleUrl><Polygon><altitudeMode>clampToGround</altitudeMode><outerBoundaryIs><LinearRing><coordinates>130.905162,37.48841,0 130.905155,37.488525,0 130.905133,37.488639,0 130.905098,37.488751,0 130.90505,37.48886,0 130.904988,37.488964,0 130.904914,37.489063,0 130.904828,37.489156,0 130.904731,37.489241,0 130.904624,37.489319,0 130.904508,37.489388,0 130.904384,37.489447,0 130.904253,37.489496,0 130.904117,37.489535,0 130.903977,37.489563,0 130.903834,37.48958,0 130.90369,37.489586,0 130.903546,37.48958,0 130.903403,37.489563,0 130.903263,37.489535,0 130.903127,37.489496,0 130.902996,37.489447,0 130.902872,37.489388,0 130.902756,37.489319,0 130.902649,37.489241,0 130.902552,37.489156,0 130.902466,37.489063,0 130.902392,37.488964,0 130.90233,37.48886,0 130.902282,37.488751,0 130.902247,37.488639,0 130.902225,37.488525,0 130.902218,37.48841,0 130.902225,37.488295,0 130.902247,37.488181,0 130.902282,37.488069,0 130.90233,37.48796,0 130.902392,37.487856,0 130.902466,37.487757,0 130.902552,37.487664,0 130.902649,37.487579,0 130.902756,37.487501,0 130.902872,37.487432,0 130.902996,37.487373,0 130.903127,37.487324,0 130.903263,37.487285,0 130.903403,37.487257,0 130.903546,37.48724,0 130.90369,37.487234,0 130.903834,37.48724,0 130.903977,37.487257,0 130.904117,37.487285,0 130.904253,37.487324,0 130.904384,37.487373,0 130.904508,37.487432,0 130.904624,37.487501,0 130.904731,37.487579,0 130.904828,37.487664,0 130.904914,37.487757,0 130.904988,37.487856,0 130.90505,37.48796,0 130.905098,37.488069,0 130.905133,37.488181,0 130.905155,37.488295,0 130.905162,37.48841,0</coordinates></LinearRing></outerBoundaryIs></Polygon></Placemark>
<Placemark><name>N3 · 도동리 339-1~393-1 · 고시 구역</name><description><![CDATA[위치: 도동리 · 울릉고등학교 서편 봉래길·봉래3길 일원
등급: 고시 확정
보상 유형: 토지·지장물 보상 — 절차 완료 단계
근거: 울릉군 「도동~저동간 관광지 연계순환도로 개설공사」의 고시된 사업 위치입니다. 고시 범위 339-1~393-1 안에 드는 실제 지번의 등록 좌표 — 도동리 350(울릉고)·373-8(한빛펜션)·383-10(해호랑펜션) — 이 모두 이 원 안에 들어옵니다. 저동리 이장이 매입을 요구한 「울릉고 맞은편 사유지 2필지」와 같은 일대입니다.
확인수준: 공보 문구 + 지번·좌표 실측 대조
표시: 중심 반경 280m 원 (필지 경계 아님)]]></description><styleUrl>#z_fix</styleUrl><Polygon><altitudeMode>clampToGround</altitudeMode><outerBoundaryIs><LinearRing><coordinates>130.90997,37.4933,0 130.909955,37.493548,0 130.909909,37.493794,0 130.909834,37.494035,0 130.909729,37.494269,0 130.909596,37.494494,0 130.909436,37.494707,0 130.909251,37.494906,0 130.909042,37.495091,0 130.908811,37.495257,0 130.908561,37.495405,0 130.908294,37.495533,0 130.908013,37.495639,0 130.90772,37.495723,0 130.907418,37.495784,0 130.907111,37.49582,0 130.9068,37.495832,0 130.906489,37.49582,0 130.906182,37.495784,0 130.90588,37.495723,0 130.905587,37.495639,0 130.905306,37.495533,0 130.905039,37.495405,0 130.904789,37.495257,0 130.904558,37.495091,0 130.904349,37.494906,0 130.904164,37.494707,0 130.904004,37.494494,0 130.903871,37.494269,0 130.903766,37.494035,0 130.903691,37.493794,0 130.903645,37.493548,0 130.90363,37.4933,0 130.903645,37.493052,0 130.903691,37.492806,0 130.903766,37.492565,0 130.903871,37.492331,0 130.904004,37.492106,0 130.904164,37.491893,0 130.904349,37.491694,0 130.904558,37.491509,0 130.904789,37.491343,0 130.905039,37.491195,0 130.905306,37.491067,0 130.905587,37.490961,0 130.90588,37.490877,0 130.906182,37.490816,0 130.906489,37.49078,0 130.9068,37.490768,0 130.907111,37.49078,0 130.907418,37.490816,0 130.90772,37.490877,0 130.908013,37.490961,0 130.908294,37.491067,0 130.908561,37.491195,0 130.908811,37.491343,0 130.909042,37.491509,0 130.909251,37.491694,0 130.909436,37.491893,0 130.909596,37.492106,0 130.909729,37.492331,0 130.909834,37.492565,0 130.909909,37.492806,0 130.909955,37.493052,0 130.90997,37.4933,0</coordinates></LinearRing></outerBoundaryIs></Polygon></Placemark>
<Placemark><name>N4 · 저동 진입부 · 순환로 158~179</name><description><![CDATA[위치: 저동리 · 저동항 배후 도로변
등급: 낮음~중간
보상 유형: 확폭 시 도로변 건물 직접 편입
근거: 저동은 항구 배후 도로를 따라 주거지가 길게 늘어선 구조여서 도로를 넓히면 건물이 곧바로 편입됩니다. 현 군 사업 구역(도동리)에는 포함되지 않습니다.
확인수준: 참고 — 현 사업구간 아님
표시: 중심 반경 220m 원 (필지 경계 아님)]]></description><styleUrl>#z_lo</styleUrl><Polygon><altitudeMode>clampToGround</altitudeMode><outerBoundaryIs><LinearRing><coordinates>130.912291,37.496,0 130.912279,37.496195,0 130.912243,37.496388,0 130.912184,37.496578,0 130.912101,37.496761,0 130.911997,37.496938,0 130.911871,37.497105,0 130.911726,37.497262,0 130.911561,37.497407,0 130.91138,37.497538,0 130.911184,37.497654,0 130.910974,37.497755,0 130.910753,37.497838,0 130.910523,37.497904,0 130.910286,37.497951,0 130.910044,37.49798,0 130.9098,37.49799,0 130.909556,37.49798,0 130.909314,37.497951,0 130.909077,37.497904,0 130.908847,37.497838,0 130.908626,37.497755,0 130.908416,37.497654,0 130.90822,37.497538,0 130.908039,37.497407,0 130.907874,37.497262,0 130.907729,37.497105,0 130.907603,37.496938,0 130.907499,37.496761,0 130.907416,37.496578,0 130.907357,37.496388,0 130.907321,37.496195,0 130.907309,37.496,0 130.907321,37.495805,0 130.907357,37.495612,0 130.907416,37.495422,0 130.907499,37.495239,0 130.907603,37.495062,0 130.907729,37.494895,0 130.907874,37.494738,0 130.908039,37.494593,0 130.90822,37.494462,0 130.908416,37.494346,0 130.908626,37.494245,0 130.908847,37.494162,0 130.909077,37.494096,0 130.909314,37.494049,0 130.909556,37.49402,0 130.9098,37.49401,0 130.910044,37.49402,0 130.910286,37.494049,0 130.910523,37.494096,0 130.910753,37.494162,0 130.910974,37.494245,0 130.911184,37.494346,0 130.91138,37.494462,0 130.911561,37.494593,0 130.911726,37.494738,0 130.911871,37.494895,0 130.911997,37.495062,0 130.912101,37.495239,0 130.912184,37.495422,0 130.912243,37.495612,0 130.912279,37.495805,0 130.912291,37.496,0</coordinates></LinearRing></outerBoundaryIs></Polygon></Placemark>
<Placemark><name>N5 · 행남 곶(보전녹지·급애, 회피 추정)</name><description><![CDATA[위치: 도동리 · 도동등대~행남등대 일원
등급: 회피 추정
보상 유형: —
근거: 도동항과 저동항을 직선으로 이으면 이 곶의 밑동을 지납니다(직선 1.84 km 전 구간 육지). 다만 지적편집도상 보전녹지지역이고 해안은 급애·산책로여서 노선이 피해 갈 개연성이 큽니다.
확인수준: 추정 — 지적편집도·위성 판독
표시: 중심 반경 470m 원 (필지 경계 아님)]]></description><styleUrl>#z_ref</styleUrl><Polygon><altitudeMode>clampToGround</altitudeMode><outerBoundaryIs><LinearRing><coordinates>130.920821,37.4862,0 130.920795,37.486617,0 130.920719,37.487029,0 130.920592,37.487434,0 130.920416,37.487827,0 130.920193,37.488204,0 130.919924,37.488561,0 130.919613,37.488897,0 130.919262,37.489206,0 130.918875,37.489486,0 130.918456,37.489734,0 130.918008,37.489949,0 130.917536,37.490127,0 130.917045,37.490268,0 130.916538,37.490369,0 130.916022,37.49043,0 130.9155,37.490451,0 130.914978,37.49043,0 130.914462,37.490369,0 130.913955,37.490268,0 130.913464,37.490127,0 130.912992,37.489949,0 130.912544,37.489734,0 130.912125,37.489486,0 130.911738,37.489206,0 130.911387,37.488897,0 130.911076,37.488561,0 130.910807,37.488204,0 130.910584,37.487827,0 130.910408,37.487434,0 130.910281,37.487029,0 130.910205,37.486617,0 130.910179,37.4862,0 130.910205,37.485783,0 130.910281,37.485371,0 130.910408,37.484966,0 130.910584,37.484573,0 130.910807,37.484196,0 130.911076,37.483839,0 130.911387,37.483503,0 130.911738,37.483194,0 130.912125,37.482914,0 130.912544,37.482666,0 130.912992,37.482451,0 130.913464,37.482273,0 130.913955,37.482132,0 130.914462,37.482031,0 130.914978,37.48197,0 130.9155,37.481949,0 130.916022,37.48197,0 130.916538,37.482031,0 130.917045,37.482132,0 130.917536,37.482273,0 130.918008,37.482451,0 130.918456,37.482666,0 130.918875,37.482914,0 130.919262,37.483194,0 130.919613,37.483503,0 130.919924,37.483839,0 130.920193,37.484196,0 130.920416,37.484573,0 130.920592,37.484966,0 130.920719,37.485371,0 130.920795,37.485783,0 130.920821,37.4862,0</coordinates></LinearRing></outerBoundaryIs></Polygon></Placemark>
</Folder><Folder><name>축선</name>
<Placemark><name>남측 축 · 도동항→사동 (추정 2.7km)</name><styleUrl>#axis_s</styleUrl><LineString><tessellate>1</tessellate><coordinates>130.90842,37.48185,0 130.90786,37.48087,0 130.90691,37.48034,0 130.90596,37.4798,0 130.90501,37.47927,0 130.90406,37.47873,0 130.90311,37.4782,0 130.90216,37.47766,0 130.90121,37.47713,0 130.90026,37.47659,0 130.89865,37.47679,0 130.89731,37.47669,0 130.89597,37.4766,0 130.89489,37.47621,0 130.89394,37.47567,0 130.89325,37.47484,0 130.89125,37.47548,0 130.89017,37.47509,0 130.88922,37.47456,0 130.88814,37.47417,0 130.88745,37.47334,0 130.88663,37.47266,0 130.88516,37.47271,0 130.88408,37.47232,0 130.88339,37.47149,0</coordinates></LineString></Placemark>
<Placemark><name>북측 축 · 도동항→저동 (2.74km)</name><styleUrl>#axis_n</styleUrl><LineString><tessellate>1</tessellate><coordinates>130.90881,37.48141,0 130.90789,37.48303,0 130.90602,37.48426,0 130.90368,37.485,0 130.90275,37.4861,0 130.9016,37.4869,0 130.90229,37.48772,0 130.90462,37.49056,0 130.9068,37.4933,0 130.90775,37.49308,0 130.90971,37.49287,0 130.90971,37.49482,0 130.90978,37.49615,0 130.90971,37.49683,0 130.91263,37.49766,0</coordinates></LineString></Placemark>
<Placemark><name>국지도 90호선 본선 (울릉순환로)</name><styleUrl>#axis_m</styleUrl><LineString><tessellate>1</tessellate><coordinates>130.89357,37.475,0 130.89815,37.48425,0 130.89952,37.48587,0 130.9016,37.4869,0 130.90229,37.48772,0 130.90462,37.49056,0 130.90775,37.49308,0 130.90971,37.49287,0 130.90971,37.49482,0 130.90978,37.49615,0 130.90971,37.49683,0 130.91263,37.49766,0</coordinates></LineString></Placemark>
<Placemark><name>도동항 지선 · 도동길 (약 0.8km)</name><styleUrl>#axis_p</styleUrl><LineString><tessellate>1</tessellate><coordinates>130.90881,37.48141,0 130.90789,37.48303,0 130.90602,37.48426,0 130.90473,37.48451,0 130.90368,37.485,0 130.90275,37.4861,0 130.9016,37.4869,0</coordinates></LineString></Placemark>
</Folder><Folder><name>도동리 지번 확인점</name>
<Placemark><name>도동항 (기준점)</name><Point><coordinates>130.90881,37.48141,0</coordinates></Point></Placemark>
<Placemark><name>도동리 289-12 · 가고싶다펜션</name><description><![CDATA[도로명: 봉래1길 52-1 / 고시범위 339-1~393-1: 밖]]></description><Point><coordinates>130.90933,37.4914,0</coordinates></Point></Placemark>
<Placemark><name>도동리 300-22 · 섬지기펜션</name><description><![CDATA[도로명: 봉래1길 19-32 / 고시범위 339-1~393-1: 밖]]></description><Point><coordinates>130.9114,37.49122,0</coordinates></Point></Placemark>
<Placemark><name>도동리 310-2 · 명가식당</name><description><![CDATA[도로명: 울릉순환로 212-21 / 고시범위 339-1~393-1: 밖]]></description><Point><coordinates>130.90971,37.49287,0</coordinates></Point></Placemark>
<Placemark><name>도동리 330-9 · 저동파출소</name><description><![CDATA[도로명: 봉래2길 30-2 / 고시범위 339-1~393-1: 밖]]></description><Point><coordinates>130.90918,37.49358,0</coordinates></Point></Placemark>
<Placemark><name>도동리 350 · 울릉고등학교</name><description><![CDATA[도로명: 울릉순환로 236 / 고시범위 339-1~393-1: 안]]></description><Point><coordinates>130.90775,37.49308,0</coordinates></Point></Placemark>
<Placemark><name>도동리 373-8 · 한빛펜션</name><description><![CDATA[도로명: 봉래길 61 / 고시범위 339-1~393-1: 안]]></description><Point><coordinates>130.90662,37.49419,0</coordinates></Point></Placemark>
<Placemark><name>도동리 383-10 · 해호랑펜션</name><description><![CDATA[도로명: 봉래3길 19 / 고시범위 339-1~393-1: 안]]></description><Point><coordinates>130.90655,37.49249,0</coordinates></Point></Placemark>
<Placemark><name>도동리 408 · 울릉한마음회관</name><description><![CDATA[도로명: 울릉순환로 286 / 고시범위 339-1~393-1: 밖]]></description><Point><coordinates>130.90462,37.49056,0</coordinates></Point></Placemark>
<Placemark><name>도동리 410-15 · 한마음회관 주차장</name><description><![CDATA[도로명: 울릉순환로 254-19 / 고시범위 339-1~393-1: 밖]]></description><Point><coordinates>130.90475,37.49093,0</coordinates></Point></Placemark>
<Placemark><name>도동리 414-8 · 울릉소방서(2027 예정)</name><description><![CDATA[도로명: - / 고시범위 339-1~393-1: 밖]]></description><Point><coordinates>130.90369,37.48841,0</coordinates></Point></Placemark>
<Placemark><name>도동리 232-11 · 울릉초등학교</name><description><![CDATA[도로명: 도동길 172 / 고시범위 339-1~393-1: 밖]]></description><Point><coordinates>130.90275,37.4861,0</coordinates></Point></Placemark>
<Placemark><name>도동리 240-2 · 울릉수협주유소</name><description><![CDATA[도로명: 울릉순환로 352 / 고시범위 339-1~393-1: 밖]]></description><Point><coordinates>130.90229,37.48772,0</coordinates></Point></Placemark>
<Placemark><name>도동리 251-2 · 울릉읍사무소</name><description><![CDATA[도로명: 도동길 158 / 고시범위 339-1~393-1: 밖]]></description><Point><coordinates>130.90368,37.485,0</coordinates></Point></Placemark>
<Placemark><name>도동리 206-1 · 울릉군청</name><description><![CDATA[도로명: 도동2길 66 / 고시범위 339-1~393-1: 밖]]></description><Point><coordinates>130.9057,37.48445,0</coordinates></Point></Placemark>
<Placemark><name>도동리 571-24 · 울릉군보건의료원</name><description><![CDATA[도로명: 울릉순환로 396-18 / 고시범위 339-1~393-1: 밖]]></description><Point><coordinates>130.89952,37.48587,0</coordinates></Point></Placemark>
<Placemark><name>도동리 594-8 · 울릉119안전센터</name><description><![CDATA[도로명: 울릉순환로 415 / 고시범위 339-1~393-1: 밖]]></description><Point><coordinates>130.89815,37.48425,0</coordinates></Point></Placemark>
<Placemark><name>도동리 650-22 · S-OIL 울릉주유소</name><description><![CDATA[도로명: - / 고시범위 339-1~393-1: 밖]]></description><Point><coordinates>130.90436,37.48961,0</coordinates></Point></Placemark>
</Folder></Document></kml>